start=new Date('2021-09-12T00:00:00.000Z').valueOf();
sats=[{"PERIAPSIS":"545.392","TLE_LINE2":"2 48400  53.0543 142.8343 0002525  72.7326 302.2246 15.06423933 20742","OBJECT_TYPE":"PAYLOAD","MEAN_ELEMENT_THEORY":"SGP4","BSTAR":"-0.00431760000000","EPHEMERIS_TYPE":"0","INCLINATION":"53.0543","COUNTRY_CODE":"US","DECAY_DATE":null,"RCS_SIZE":"LARGE","RA_OF_ASC_NODE":"142.8343","TLE_LINE1":"1 48400U 21038AZ  21254.91667824 -.00064062  00000-0 -43176-2 0  9990","SEMIMAJOR_AXIS":"6925.275","ECCENTRICITY":"0.00025250","FILE":"3113302","MEAN_MOTION_DOT":"-0.00064062","LAUNCH_DATE":"2021-05-04","OBJECT_ID":"2021-038AZ","REF_FRAME":"TEME","NORAD_CAT_ID":"48400","MEAN_MOTION":"15.06423933","EPOCH":"2021-09-11T22:00:00.999936","SITE":"AFETR","APOAPSIS":"548.889","CENTER_NAME":"EARTH","ELEMENT_SET_NO":"999","PERIOD":"95.591","CLASSIFICATION_TYPE":"U","MEAN_ANOMALY":"302.2246","MEAN_MOTION_DDOT":"0.0000000000000","GP_ID":"184511805","TIME_SYSTEM":"UTC","OBJECT_NAME":"STARLINK-2576","ARG_OF_PERICENTER":"72.7326","REV_AT_EPOCH":"2074"},{"OBJECT_TYPE":"PAYLOAD","MEAN_ELEMENT_THEORY":"SGP4","TLE_LINE2":"2 48401  53.0527 142.8411 0002008  81.2758  98.7261 15.06403921  3594","PERIAPSIS":"545.811","RA_OF_ASC_NODE":"142.8411","RCS_SIZE":"LARGE","DECAY_DATE":null,"COUNTRY_CODE":"US","INCLINATION":"53.0527","EPHEMERIS_TYPE":"0","BSTAR":"-0.00139870000000","FILE":"3113379","TLE_LINE1":"1 48401U 21038BA  21254.91667824 -.00021057  00000-0 -13987-2 0  9995","SEMIMAJOR_AXIS":"6925.337","ECCENTRICITY":"0.00020080","OBJECT_ID":"2021-038BA","LAUNCH_DATE":"2021-05-04","MEAN_MOTION_DOT":"-0.00021057","APOAPSIS":"548.592","SITE":"AFETR","EPOCH":"2021-09-11T22:00:00.999936","MEAN_MOTION":"15.06403921","NORAD_CAT_ID":"48401","REF_FRAME":"TEME","CENTER_NAME":"EARTH","CLASSIFICATION_TYPE":"U","PERIOD":"95.592","ELEMENT_SET_NO":"999","REV_AT_EPOCH":"359","ARG_OF_PERICENTER":"81.2758","OBJECT_NAME":"STARLINK-2571","MEAN_MOTION_DDOT":"0.0000000000000","GP_ID":"184536578","TIME_SYSTEM":"UTC","MEAN_ANOMALY":"98.7261"},{"MEAN_ELEMENT_THEORY":"SGP4","OBJECT_TYPE":"PAYLOAD","TLE_LINE2":"2 48402  53.0547 142.8358 0002402  80.0745 314.8642 15.06423872  3602","PERIAPSIS":"545.477","RA_OF_ASC_NODE":"142.8358","RCS_SIZE":"LARGE","COUNTRY_CODE":"US","DECAY_DATE":null,"INCLINATION":"53.0547","EPHEMERIS_TYPE":"0","BSTAR":"-0.00246090000000","FILE":"3113379","ECCENTRICITY":"0.00024020","TLE_LINE1":"1 48402U 21038BB  21254.91667824 -.00036774  00000-0 -24609-2 0  9991","SEMIMAJOR_AXIS":"6925.275","LAUNCH_DATE":"2021-05-04","OBJECT_ID":"2021-038BB","MEAN_MOTION_DOT":"-0.00036774","APOAPSIS":"548.804","SITE":"AFETR","MEAN_MOTION":"15.06423872","EPOCH":"2021-09-11T22:00:00.999936","NORAD_CAT_ID":"48402","REF_FRAME":"TEME","CENTER_NAME":"EARTH","CLASSIFICATION_TYPE":"U","PERIOD":"95.591","ELEMENT_SET_NO":"999","REV_AT_EPOCH":"360","ARG_OF_PERICENTER":"80.0745","OBJECT_NAME":"STARLINK-2560","GP_ID":"184536297","TIME_SYSTEM":"UTC","MEAN_MOTION_DDOT":"0.0000000000000","MEAN_ANOMALY":"314.8642"},{"RA_OF_ASC_NODE":"142.8329","RCS_SIZE":"LARGE","DECAY_DATE":null,"COUNTRY_CODE":"US","EPHEMERIS_TYPE":"0","INCLINATION":"53.0533","BSTAR":"-0.00232340000000","OBJECT_TYPE":"PAYLOAD","MEAN_ELEMENT_THEORY":"SGP4","TLE_LINE2":"2 48403  53.0533 142.8329 0002356  75.7355 339.2300 15.06399608  3591","PERIAPSIS":"545.583","LAUNCH_DATE":"2021-05-04","OBJECT_ID":"2021-038BC","MEAN_MOTION_DOT":"-0.00034722","FILE":"3113379","TLE_LINE1":"1 48403U 21038BC  21254.91667824 -.00034722  00000-0 -23234-2 0  9996","ECCENTRICITY":"0.00023560","SEMIMAJOR_AXIS":"6925.350","CENTER_NAME":"EARTH","APOAPSIS":"548.846","SITE":"AFETR","MEAN_MOTION":"15.06399608","EPOCH":"2021-09-11T22:00:00.999936","NORAD_CAT_ID":"48403","REF_FRAME":"TEME","REV_AT_EPOCH":"359","ARG_OF_PERICENTER":"75.7355","OBJECT_NAME":"STARLINK-2561","MEAN_MOTION_DDOT":"0.0000000000000","GP_ID":"184536485","TIME_SYSTEM":"UTC","MEAN_ANOMALY":"339.2300","CLASSIFICATION_TYPE":"U","PERIOD":"95.592","ELEMENT_SET_NO":"999"},{"TLE_LINE1":"1 48404U 21038BD  21254.91667824 -.00024856  00000-0 -16552-2 0  9999","ECCENTRICITY":"0.00023590","SEMIMAJOR_AXIS":"6925.326","FILE":"3113303","MEAN_MOTION_DOT":"-0.00024856","LAUNCH_DATE":"2021-05-04","OBJECT_ID":"2021-038BD","OBJECT_TYPE":"PAYLOAD","MEAN_ELEMENT_THEORY":"SGP4","PERIAPSIS":"545.557","TLE_LINE2":"2 48404  53.0545 142.8363 0002359  79.6894 355.2218 15.06407380 20746","RCS_SIZE":"LARGE","RA_OF_ASC_NODE":"142.8363","INCLINATION":"53.0545","EPHEMERIS_TYPE":"0","BSTAR":"-0.00165520000000","COUNTRY_CODE":"US","DECAY_DATE":null,"CLASSIFICATION_TYPE":"U","PERIOD":"95.592","ELEMENT_SET_NO":"999","ARG_OF_PERICENTER":"79.6894","OBJECT_NAME":"STARLINK-2593","REV_AT_EPOCH":"2074","GP_ID":"184512323","MEAN_MOTION_DDOT":"0.0000000000000","TIME_SYSTEM":"UTC","MEAN_ANOMALY":"355.2218","MEAN_MOTION":"15.06407380","EPOCH":"2021-09-11T22:00:00.999936","NORAD_CAT_ID":"48404","APOAPSIS":"548.825","SITE":"AFETR","REF_FRAME":"TEME","CENTER_NAME":"EARTH"},{"ELEMENT_SET_NO":"999","PERIOD":"95.591","CLASSIFICATION_TYPE":"U","MEAN_ANOMALY":"15.0020","GP_ID":"184536255","MEAN_MOTION_DDOT":"0.0000000000000","TIME_SYSTEM":"UTC","OBJECT_NAME":"STARLINK-2570","ARG_OF_PERICENTER":"79.9368","REV_AT_EPOCH":"359","REF_FRAME":"TEME","NORAD_CAT_ID":"48405","MEAN_MOTION":"15.06424434","EPOCH":"2021-09-11T22:00:00.999936","SITE":"AFETR","APOAPSIS":"548.763","CENTER_NAME":"EARTH","ECCENTRICITY":"0.00023460","TLE_LINE1":"1 48405U 21038BE  21254.91667824 -.00039376  00000-0 -26373-2 0  9995","SEMIMAJOR_AXIS":"6925.274","FILE":"3113379","MEAN_MOTION_DOT":"-0.00039376","OBJECT_ID":"2021-038BE","LAUNCH_DATE":"2021-05-04","TLE_LINE2":"2 48405  53.0542 142.8353 0002346  79.9368  15.0020 15.06424434  3593","PERIAPSIS":"545.514","OBJECT_TYPE":"PAYLOAD","MEAN_ELEMENT_THEORY":"SGP4","BSTAR":"-0.00263730000000","EPHEMERIS_TYPE":"0","INCLINATION":"53.0542","COUNTRY_CODE":"US","DECAY_DATE":null,"RCS_SIZE":"LARGE","RA_OF_ASC_NODE":"142.8353"},{"MEAN_MOTION_DOT":"-0.00024473","OBJECT_ID":"2021-038BF","LAUNCH_DATE":"2021-05-04","SEMIMAJOR_AXIS":"6925.340","TLE_LINE1":"1 48406U 21038BF  21254.91667824 -.00024473  00000-0 -16295-2 0  9990","ECCENTRICITY":"0.00024760","FILE":"3113379","BSTAR":"-0.00162950000000","INCLINATION":"53.0531","EPHEMERIS_TYPE":"0","COUNTRY_CODE":"US","DECAY_DATE":null,"RCS_SIZE":"LARGE","RA_OF_ASC_NODE":"142.8333","PERIAPSIS":"545.490","TLE_LINE2":"2 48406  53.0531 142.8333 0002476  79.1620  35.7359 15.06402728  3593","OBJECT_TYPE":"PAYLOAD","MEAN_ELEMENT_THEORY":"SGP4","MEAN_ANOMALY":"35.7359","GP_ID":"184535975","TIME_SYSTEM":"UTC","MEAN_MOTION_DDOT":"0.0000000000000","OBJECT_NAME":"STARLINK-2568","ARG_OF_PERICENTER":"79.1620","REV_AT_EPOCH":"359","ELEMENT_SET_NO":"999","PERIOD":"95.592","CLASSIFICATION_TYPE":"U","CENTER_NAME":"EARTH","REF_FRAME":"TEME","NORAD_CAT_ID":"48406","EPOCH":"2021-09-11T22:00:00.999936","MEAN_MOTION":"15.06402728","APOAPSIS":"548.920","SITE":"AFETR"},{"MEAN_ELEMENT_THEORY":"SGP4","OBJECT_TYPE":"PAYLOAD","TLE_LINE2":"2 48407  53.0455 142.8710 0002242  85.9729  48.9692 15.06395721 20739","PERIAPSIS":"545.674","RA_OF_ASC_NODE":"142.8710","RCS_SIZE":"LARGE","COUNTRY_CODE":"US","DECAY_DATE":null,"BSTAR":"-0.00152990000000","INCLINATION":"53.0455","EPHEMERIS_TYPE":"0","FILE":"3113317","TLE_LINE1":"1 48407U 21038BG  21254.91667824 -.00022995  00000-0 -15299-2 0  9991","SEMIMAJOR_AXIS":"6925.362","ECCENTRICITY":"0.00022420","LAUNCH_DATE":"2021-05-04","OBJECT_ID":"2021-038BG","MEAN_MOTION_DOT":"-0.00022995","SITE":"AFETR","APOAPSIS":"548.779","NORAD_CAT_ID":"48407","EPOCH":"2021-09-11T22:00:00.999936","MEAN_MOTION":"15.06395721","REF_FRAME":"TEME","CENTER_NAME":"EARTH","PERIOD":"95.592","CLASSIFICATION_TYPE":"U","ELEMENT_SET_NO":"999","REV_AT_EPOCH":"2073","OBJECT_NAME":"STARLINK-2595","ARG_OF_PERICENTER":"85.9729","MEAN_ANOMALY":"48.9692","MEAN_MOTION_DDOT":"0.0000000000000","GP_ID":"184511848","TIME_SYSTEM":"UTC"},{"REF_FRAME":"TEME","SITE":"AFETR","APOAPSIS":"548.829","MEAN_MOTION":"15.06412580","EPOCH":"2021-09-11T22:00:00.999936","NORAD_CAT_ID":"48408","CENTER_NAME":"EARTH","ELEMENT_SET_NO":"999","CLASSIFICATION_TYPE":"U","PERIOD":"95.591","GP_ID":"184536392","MEAN_MOTION_DDOT":"0.0000000000000","TIME_SYSTEM":"UTC","MEAN_ANOMALY":"78.5218","REV_AT_EPOCH":"360","ARG_OF_PERICENTER":"76.3816","OBJECT_NAME":"STARLINK-2592","TLE_LINE2":"2 48408  53.0504 142.8426 0002389  76.3816  78.5218 15.06412580  3605","PERIAPSIS":"545.521","MEAN_ELEMENT_THEORY":"SGP4","OBJECT_TYPE":"PAYLOAD","DECAY_DATE":null,"COUNTRY_CODE":"US","EPHEMERIS_TYPE":"0","INCLINATION":"53.0504","BSTAR":"-0.00147460000000","RA_OF_ASC_NODE":"142.8426","RCS_SIZE":"LARGE","FILE":"3113379","SEMIMAJOR_AXIS":"6925.310","TLE_LINE1":"1 48408U 21038BH  21254.91667824 -.00022187  00000-0 -14746-2 0  9991","ECCENTRICITY":"0.00023890","LAUNCH_DATE":"2021-05-04","OBJECT_ID":"2021-038BH","MEAN_MOTION_DOT":"-0.00022187"},{"OBJECT_NAME":"STARLINK-2596","ARG_OF_PERICENTER":"74.3264","REV_AT_EPOCH":"2067","MEAN_ANOMALY":"313.0987","GP_ID":"184512335","MEAN_MOTION_DDOT":"0.0000000000000","TIME_SYSTEM":"UTC","PERIOD":"95.591","CLASSIFICATION_TYPE":"U","ELEMENT_SET_NO":"999","CENTER_NAME":"EARTH","NORAD_CAT_ID":"48409","MEAN_MOTION":"15.06410210","EPOCH":"2021-09-11T22:00:00.999936","SITE":"AFETR","APOAPSIS":"548.872","REF_FRAME":"TEME","MEAN_MOTION_DOT":"-0.00025721","LAUNCH_DATE":"2021-05-04","OBJECT_ID":"2021-038BJ","ECCENTRICITY":"0.00024400","TLE_LINE1":"1 48409U 21038BJ  21254.91667824 -.00025721  00000-0 -17135-2 0  9994","SEMIMAJOR_AXIS":"6925.317","FILE":"3113317","RCS_SIZE":"LARGE","RA_OF_ASC_NODE":"147.8373","BSTAR":"-0.00171350000000","INCLINATION":"53.0531","EPHEMERIS_TYPE":"0","COUNTRY_CODE":"US","DECAY_DATE":null,"MEAN_ELEMENT_THEORY":"SGP4","OBJECT_TYPE":"PAYLOAD","PERIAPSIS":"545.492","TLE_LINE2":"2 48409  53.0531 147.8373 0002440  74.3264 313.0987 15.06410210 20679"}];
